FLOCK 1C-3              
1 40041U 14033AH  17182.69122157  .00000664  00000-0  77155-4 0  9997
2 40041  97.9261  95.1861 0011628 243.6464 116.3547 14.88656659164648
POLYITAN-1              
1 40042U 14033AJ  17182.71044798  .00000236  00000-0  31824-4 0  9993
2 40042  97.9193  93.7711 0013402 243.7495 116.2344 14.88062314164584
TIGRISAT                
1 40043U 14033AK  17182.90649314  .00000088  00000-0  20911-4 0  9990
2 40043  97.8557  67.0238 0058828 246.4825 113.0195 14.73983128162704
LEMUR-1                 
1 40044U 14033AL  17182.82153296  .00000099  00000-0  22620-4 0  9992
2 40044  97.8555  66.6826 0057961 247.8989 111.6060 14.73806873162979
AEROCUBE 6A             
1 40045U 14033AM  17182.79099200  .00000259  00000-0  45357-4 0  9993
2 40045  97.8675  68.0990 0056755 242.4143 117.1295 14.74829995162639
AEROCUBE 6B             
1 40046U 14033AN  17182.79105173  .00000240  00000-0  42597-4 0  9994
2 40046  97.8668  68.0320 0055997 241.9939 117.5598 14.74830027162631
UKUBE-1                 
1 40074U 14037F   17182.79436629  .00000308  00000-0  44549-4 0  9996
2 40074  98.3489 298.3678 0004963  19.8811 340.2601 14.83508814161344
BRITE-PL 2              
1 40119U 14049B   17182.91234910  .00000071  00000-0  15077-4 0  9993
2 40119  97.9361 268.7363 0018530  45.0190 315.2523 14.84144291155250
FIREBIRD 4              
1 40378U 15003C   17182.92462625  .00001032  00000-0  48281-4 0  9999
2 40378  99.1232   9.8595 0135531 313.8167  45.1916 15.15422805133234
GRIFEX                  
1 40379U 15003D   17182.73465143  .00000756  00000-0  38712-4 0  9997
2 40379  99.1252   7.3499 0141476 322.2179  36.9178 15.12973818133088
EXOCUBE                 
1 40380U 15003E   17182.93306552  .00000541  00000-0  30127-4 0  9993
2 40380  99.1291   6.3029 0145103 325.6391  33.5513 15.11494762133019
DEORBITSAIL             
1 40719U 15032E   17182.83188260  .00000318  00000-0  53461-4 0  9992
2 40719  97.9791  76.4057 0018043  95.0610 265.2660 14.76068535106482
TIANWANG 1C (TW-1C)     
1 40926U 15051B   17182.92702725  .00004823  00000-0  11158-3 0  9992
2 40926  97.2285 222.3741 0013684 113.6174   8.4384 15.42861458 99191
TIANWANG 1B (TW-1B)     
1 40927U 15051C   17182.80700270  .00004939  00000-0  11852-3 0  9992
2 40927  97.2373 222.2662 0013168 122.0022 326.3024 15.41753004 99126
TIANWANG 1A (TW-1A)     
1 40928U 15051D   17182.74485377  .00002387  00000-0  69768-4 0  9999
2 40928  97.2255 218.2991 0013805 139.4812 313.1788 15.36182230 98933
LEMUR-2-JOEL            
1 40932U 15052C   17182.32882702  .00001175  00000-0  72534-4 0  9991
2 40932   6.0080 126.9009 0013329  94.7519 265.4402 14.77477915 95104
LEMUR-2-CHRIS           
1 40933U 15052D   17182.32975050  .00000901  00000-0  34762-4 0  9998
2 40933   6.0054 125.7780 0013763  99.8634 260.3053 14.77619324 95114
LEMUR-2-JEROEN          
1 40934U 15052E   17182.30777789  .00001406  00000-0  10615-3 0  9997
2 40934   6.0052 131.1701 0010526  83.7383 276.4212 14.76959122 95032
LEMUR-2-PETER           
1 40935U 15052F   17182.32902623  .00000423  00000-0 -29920-4 0  9996
2 40935   6.0023 132.4649 0009960  80.6746 279.4491 14.76731278 95037
EXACTVIEW 9             
1 40936U 15052G   17174.70068188 -.00006998  00000-0 -10764-2 0  9997
2 40936   6.0007 189.1609 0011145 323.4714  36.4789 14.76243800 93898
ATHENOXAT 1             
1 41168U 15077C   17182.78033241  .00001691  00000-0  58009-4 0  9990
2 41168  14.9855  62.8230 0012328 217.3098 198.7286 15.11609601 85252
GALASSIA                
1 41170U 15077E   17182.81757760  .00001530  00000-0  47824-4 0  9991
2 41170  14.9897  58.8317 0013603 237.0557 122.8455 15.12110608 85293
VELOX 2                 
1 41171U 15077F   17182.28626449  .00001291  00000-0  37820-4 0  9991
2 41171  14.9920  75.0595 0009239 186.8473 173.1722 15.09884653 85108
AGGIESAT 4              
1 41313U 98067HP  17182.74751997  .00017860  00000-0  12407-3 0  9999
2 41313  51.6357 287.9323 0002729 206.1504 153.9357 15.74508571 81222
HORYU-IV                
1 41340U 16012D   17182.88797503  .00000420  00000-0  25646-4 0  9991
2 41340  31.0064  15.4074 0014373 220.9180 139.0377 15.00609020 75228
OUFTI-1                 
1 41458U 16025C   17182.95551550  .00000298  00000-0  20890-4 0  9992
2 41458  98.1858 221.3838 0173268 239.7646 118.6327 15.03205978 64800
E-ST@R-II               
1 41459U 16025D   17182.97805969  .00001416  00000-0  80317-4 0  9994
2 41459  98.1854 221.3523 0174009 240.1015 118.2823 15.03054209 64792
AAUSAT 4                
1 41460U 16025E   17182.83367541  .00001146  00000-0  66032-4 0  9998
2 41460  98.1781 221.3108 0166498 238.9016 119.5754 15.03947196 64794
DIWATA-1                
1 41463U 98067HT  17182.93268786  .00005105  00000-0  62067-4 0  9992
2 41463  51.6417 310.8910 0000714 162.5741 289.0521 15.62499159 67106
NODES 2                 
1 41477U 98067HX  17182.71822469  .00062376  00000-0  27065-3 0  9998
2 41477  51.6267 287.5616 0001455 309.7983  50.2892 15.84236638 64373
NODES 1                 
1 41478U 98067HY  17182.76554517  .00061320  00000-0  27427-3 0  9990
2 41478  51.6305 287.9122 0001442 315.5905  44.4983 15.83602649 64372
FLOCK 2E'-1             
1 41479U 98067HZ  17182.92285468  .00017260  00000-0  14795-3 0  9993
2 41479  51.6353 301.1461 0001372 305.2656  54.8212 15.69520601 64171
FLOCK 2E'-3             
1 41480U 98067JA  17182.82109784  .00015068  00000-0  13038-3 0  9993
2 41480  51.6352 301.2369 0000981 359.0084   1.0911 15.69413755 64156
FLOCK 2E'-2             
1 41481U 98067JB  17182.76448526  .00017891  00000-0  14941-3 0  9997
2 41481  51.6335 300.0632 0001460 290.1215  69.9625 15.70125090 64151
FLOCK 2E'-4             
1 41482U 98067JC  17182.84077219  .00017590  00000-0  13423-3 0  9994
2 41482  51.6331 298.3029 0000603 345.8523  14.2459 15.72306538 64186
FLOCK 2E-1              
1 41483U 98067JD  17182.91575593  .00015084  00000-0  13593-3 0  9995
2 41483  51.6367 301.9105 0001539  81.2940 278.8231 15.68414821 64013
FLOCK 2E-2              
1 41484U 98067JE  17182.88938219  .00013654  00000-0  11611-3 0  9990
2 41484  51.6378 300.2518 0001146  94.6591 265.4537 15.69938877 64036
FLOCK 2E-3              
1 41486U 98067JG  17182.93504427  .00033418  00000-0  29839-3 0  9999
2 41486  51.6361 303.5320 0000875 116.7406 243.3680 15.68082434 64016
FLOCK 2E-4              
1 41487U 98067JH  17182.84391884  .00011101  00000-0  10090-3 0  9995
2 41487  51.6362 302.1468 0002325 136.6558 223.4621 15.68540722 64021
FLOCK 2E-6              
1 41563U 98067JM  17182.91553959  .00010177  00000-0  98790-4 0  9997
2 41563  51.6360 304.1252 0001259 294.3667  65.7197 15.67014204 62073
FLOCK 2E-5              
1 41564U 98067JN  17182.92708725  .00010331  00000-0  10059-3 0  9995
2 41564  51.6361 304.2103 0001113 300.7566  59.3320 15.66917088 62067
FLOCK 2E-7              
1 41565U 98067JP  17182.89953863  .00015149  00000-0  12734-3 0  9991
2 41565  51.6353 300.2388 0002793 178.1456 181.9552 15.70114441 62011
FLOCK 2E-8              
1 41566U 98067JQ  17182.63331973  .00214081  30738-4  37591-3 0  9995
2 41566  51.6240 278.5837 0009297 341.2869  18.7799 16.01522771 62261
FLOCK 2E'-5             
1 41567U 98067JR  17182.86469653  .00009564  00000-0  96750-4 0  9994
2 41567  51.6371 306.0601 0003527 192.3095 167.7815 15.66060074 61906
FLOCK 2E'-6             
1 41568U 98067JS  17182.95325064  .00012535  00000-0  11625-3 0  9991
2 41568  51.6355 302.8573 0002986 195.2139 164.8768 15.67896054 61989
FLOCK 2E'-8             
1 41569U 98067JT  17182.86671328  .00016046  00000-0  13306-3 0  9998
2 41569  51.6350 300.0216 0000794 133.2006 226.9057 15.70391210 61898
FLOCK 2E'-7             
1 41570U 98067JU  17182.85044170  .00020283  00000-0  14779-3 0  9991
2 41570  51.6354 296.9181 0001190 100.3511 259.7622 15.73288366 61954
FLOCK 2E-9              
1 41571U 98067JV  17182.85902674  .00016436  00000-0  13145-3 0  9995
2 41571  51.6354 299.2355 0001915 180.4617 179.6379 15.71243514 61880
FLOCK 2E-10             
1 41572U 98067JW  17182.78087707  .00014476  00000-0  12524-3 0  9991
2 41572  51.6355 301.7224 0002964 183.3967 176.7011 15.69455651 61842
FLOCK 2E-12             
1 41573U 98067JX  17182.90104429  .00015041  00000-0  12547-3 0  9991
2 41573  51.6350 300.2590 0002465 202.2914 157.7976 15.70308329 61870
FLOCK 2E-11             
1 41574U 98067JY  17182.83165989  .00015701  00000-0  12981-3 0  9997
2 41574  51.6338 299.7482 0003419 204.4621 155.6215 15.70481773 61876
FLOCK 2E'-9             
1 41575U 98067JZ  17182.94581397  .00020867  00000-0  16339-3 0  9995
2 41575  51.6336 298.2363 0003224 225.9086 134.1647 15.71554933 61897
FLOCK 2E'-10            
1 41576U 98067KA  17182.89033568  .00016372  00000-0  13554-3 0  9994
2 41576  51.6363 300.2135 0003221 221.3186 138.7568 15.70411190 61761
FLOCK 2E'-11            
1 41577U 98067KB  17182.86798493  .00015845  00000-0  13424-3 0  9997
2 41577  51.6365 300.8239 0003328 194.0597 166.0308 15.69880581 61572
FLOCK 2E'-12            
1 41578U 98067KC  17182.85661963  .00020361  00000-0  16173-3 0  9991
2 41578  51.6340 299.9223 0003154 186.4011 173.6947 15.71230250 61589
FLOCK 2P-6              
1 41606U 16040H   17182.82349718  .00001923  00000-0  86575-4 0  9999
2 41606  97.4584 245.4180 0011765  31.7541 328.4402 15.22247425 56931
FLOCK 2P-11             
1 41608U 16040K   17182.82908664  .00002216  00000-0  99314-4 0  9993
2 41608  97.4577 245.3937 0011745  32.1444 328.0505 15.22241598 56877
FLOCK 2P-2              
1 41609U 16040L   17182.84548139  .00001761  00000-0  79548-4 0  9994
2 41609  97.4582 245.3972 0011616  31.6042 328.5890 15.22247804 56854
FLOCK 2P-9              
1 41610U 16040M   17182.92196444  .00001263  00000-0  57893-4 0  9999
2 41610  97.4581 245.4348 0011895  31.0753 329.1185 15.22249669 56748
